NORAD_CAT_ID,OBJECT_NAME,OBJECT_TYPE,EPOCH,MEAN_MOTION,ECCENTRICITY,INCLINATION,RA_OF_ASC_NODE,ARG_OF_PERICENTER,MEAN_ANOMALY,BSTAR,MEAN_MOTION_DOT,MEAN_MOTION_DDOT,TLE_LINE0,TLE_LINE1,TLE_LINE2,SEMIMAJOR_AXIS,PERIOD,APOGEE,PERIGEE,DECAYED
52688.0,STARLINK-4032,PAYLOAD,2024-07-13 16:16:50,15.08845335,0.0001301,53.2187,335.519,87.8673,272.2468,5.4518e-05,5.8e-06,0.0,0 STARLINK-4032,1 52688U 22053AJ  24195.67835726  .00000580  00000-0  54518-4 0  9996,2 52688  53.2187 335.5190 0001301  87.8673 272.2468 15.08845335119562,6917.864,95.437,540.629,538.829,0.0
52688.0,STARLINK-4032,PAYLOAD,2024-07-14 12:56:51,15.08832224,0.0001327,53.2192,331.6561,95.6088,264.5056,4.9363e-05,4.98e-06,0.0,0 STARLINK-4032,1 52688U 22053AJ  24196.53948768  .00000498  00000-0  49363-4 0  9993,2 52688  53.2192 331.6561 0001327  95.6088 264.5056 15.08832224119696,6917.904,95.438,540.687,538.851,0.0
52688.0,STARLINK-4032,PAYLOAD,2024-07-14 14:32:14,15.08833228,0.0001364,53.2193,331.3587,95.1902,264.9246,4.8176e-05,4.79e-06,0.0,0 STARLINK-4032,1 52688U 22053AJ  24196.60572730  .00000479  00000-0  48176-4 0  9993,2 52688  53.2193 331.3587 0001364  95.1902 264.9246 15.08833228120077,6917.901,95.438,540.71,538.822,0.0
52688.0,STARLINK-4032,PAYLOAD,2024-07-14 16:07:37,15.08835092,0.0001224,53.2188,331.0618,87.0874,273.0258,7.8343e-05,9.59e-06,0.0,0 STARLINK-4032,1 52688U 22053AJ  24196.67196548  .00000959  00000-0  78343-4 0  9991,2 52688  53.2188 331.0618 0001224  87.0874 273.0258 15.08835092120082,6917.895,95.438,540.607,538.914,0.0
52688.0,STARLINK-4032,PAYLOAD,2024-07-15 01:39:56,15.08840884,0.0001181,53.219,329.2778,90.7283,269.3845,2.6192e-05,1.29e-06,0.0,0 STARLINK-4032,1 52688U 22053AJ  24197.06940326  .00000129  00000-0  26192-4 0  9990,2 52688  53.2190 329.2778 0001181  90.7283 269.3845 15.08840884119777,6917.878,95.437,540.56,538.926,0.0
52688.0,STARLINK-4032,PAYLOAD,2024-07-15 14:23:01,15.08842086,0.0001279,53.2191,326.9012,102.6424,257.4711,0.00012103,1.639e-05,0.0,0 STARLINK-4032,1 52688U 22053AJ  24197.59932325  .00001639  00000-0  12103-3 0  9991,2 52688  53.2191 326.9012 0001279 102.6424 257.4711 15.08842086120229,6917.874,95.437,540.624,538.854,0.0
52688.0,STARLINK-4032,PAYLOAD,2024-07-15 15:58:24,15.08842918,0.0001298,53.2193,326.6035,103.2818,256.8319,0.00012925,1.77e-05,0.0,0 STARLINK-4032,1 52688U 22053AJ  24197.66556263  .00001770  00000-0  12925-3 0  9990,2 52688  53.2193 326.6035 0001298 103.2818 256.8319 15.08842918120230,6917.871,95.437,540.634,538.839,0.0
52688.0,STARLINK-4032,PAYLOAD,2024-07-16 12:38:25,15.08845959,0.0001628,53.2187,322.7371,96.9825,263.1352,2.9671e-05,1.84e-06,0.0,0 STARLINK-4032,1 52688U 22053AJ  24198.52668264  .00000184  00000-0  29671-4 0  9996,2 52688  53.2187 322.7371 0001628  96.9825 263.1352 15.08845959119993,6917.862,95.437,540.853,538.601,0.0
52688.0,STARLINK-4032,PAYLOAD,2024-07-16 14:13:48,15.08846597,0.0001529,53.2191,322.4373,90.1967,269.92,0.00017408,2.484e-05,0.0,0 STARLINK-4032,1 52688U 22053AJ  24198.59292076  .00002484  00000-0  17408-3 0  9996,2 52688  53.2191 322.4373 0001529  90.1967 269.9200 15.08846597120379,6917.86,95.437,540.783,538.667,0.0
52688.0,STARLINK-4032,PAYLOAD,2024-07-16 15:49:11,15.08851607,0.0001366,53.2179,322.1388,67.4344,292.6792,0.00021614,3.155e-05,0.0,0 STARLINK-4032,1 52688U 22053AJ  24198.65915833  .00003155  00000-0  21614-3 0  9996,2 52688  53.2179 322.1388 0001366  67.4344 292.6792 15.08851607120381,6917.845,95.437,540.655,538.765,0.0
52688.0,STARLINK-4032,PAYLOAD,2024-07-17 14:04:35,15.08841277,0.0001264,53.2173,317.9737,79.2823,280.8312,8.0725e-05,9.97e-06,0.0,0 STARLINK-4032,1 52688U 22053AJ  24199.58652319  .00000997  00000-0  80725-4 0  9996,2 52688  53.2173 317.9737 0001264  79.2823 280.8312 15.08841277120159,6917.876,95.437,540.616,538.867,0.0
52688.0,STARLINK-4032,PAYLOAD,2024-07-17 15:39:58,15.0884593,0.0001171,53.2169,317.6769,70.6044,289.5075,3.1093e-05,2.07e-06,0.0,0 STARLINK-4032,1 52688U 22053AJ  24199.65276086  .00000207  00000-0  31093-4 0  9995,2 52688  53.2169 317.6769 0001171  70.6044 289.5075 15.08845930120537,6917.862,95.437,540.537,538.917,0.0
52688.0,STARLINK-4032,PAYLOAD,2024-07-18 13:55:22,15.0884309,0.0001226,53.2166,313.5172,73.5581,286.5545,0.00011269,1.506e-05,0.0,0 STARLINK-4032,1 52688U 22053AJ  24200.58012396  .00001506  00000-0  11269-3 0  9997,2 52688  53.2166 313.5172 0001226  73.5581 286.5545 15.08843090120675,6917.871,95.437,540.584,538.888,0.0
52688.0,STARLINK-4032,PAYLOAD,2024-07-19 13:46:09,15.08840816,0.0001542,53.2173,309.0494,110.3704,249.7454,6.59e-05,7.61e-06,0.0,0 STARLINK-4032,1 52688U 22053AJ  24201.57372467  .00000761  00000-0  65900-4 0  9999,2 52688  53.2173 309.0494 0001542 110.3704 249.7454 15.08840816120457,6917.878,95.438,540.81,538.676,0.0
52688.0,STARLINK-4032,PAYLOAD,2024-07-20 13:36:56,15.08848853,0.0001268,53.2188,304.5956,90.8865,269.2273,9.9247e-05,1.292e-05,0.0,0 STARLINK-4032,1 52688U 22053AJ  24202.56732180  .00001292  00000-0  99247-4 0  9992,2 52688  53.2188 304.5956 0001268  90.8865 269.2273 15.08848853120973,6917.853,95.437,540.596,538.841,0.0
52688.0,STARLINK-4032,PAYLOAD,2024-07-21 13:27:42,15.08864604,0.0001359,53.2179,300.1354,89.1855,270.9293,0.00037914,5.755e-05,0.0,0 STARLINK-4032,1 52688U 22053AJ  24203.56091157  .00005755  00000-0  37914-3 0  9995,2 52688  53.2179 300.1354 0001359  89.1855 270.9293 15.08864604120757,6917.805,95.436,540.61,538.73,0.0
52688.0,STARLINK-4032,PAYLOAD,2024-07-22 10:07:44,15.08833581,0.0001411,53.2178,296.2707,106.0414,254.0734,-0.0001775,-3.111e-05,0.0,0 STARLINK-4032,1 52688U 22053AJ  24204.42204426 -.00003111  00000-0 -17750-3 0  9998,2 52688  53.2178 296.2707 0001411 106.0414 254.0734 15.08833581120889,6917.9,95.438,540.741,538.789,0.0
52688.0,STARLINK-4032,PAYLOAD,2024-07-22 14:53:53,15.08837586,0.0001546,53.2182,295.3787,111.3681,248.7476,-6.5559e-05,-1.331e-05,0.0,0 STARLINK-4032,1 52688U 22053AJ  24204.62076337 -.00001331  00000-0 -65559-4 0  9991,2 52688  53.2182 295.3787 0001546 111.3681 248.7476 15.08837586121283,6917.888,95.438,540.822,538.683,0.0
52688.0,STARLINK-4032,PAYLOAD,2024-07-23 09:58:31,15.08838083,0.0001573,53.2174,291.8095,114.2743,245.8413,6.1903e-05,6.97e-06,0.0,0 STARLINK-4032,1 52688U 22053AJ  24205.41564648  .00000697  00000-0  61903-4 0  9997,2 52688  53.2174 291.8095 0001573 114.2743 245.8413 15.08838083121404,6917.886,95.438,540.839,538.663,0.0
52688.0,STARLINK-4032,PAYLOAD,2024-07-24 09:49:19,15.08830723,0.000154,53.2161,287.3476,117.186,242.9289,0.00013258,1.822e-05,0.0,0 STARLINK-4032,1 52688U 22053AJ  24206.40925715  .00001822  00000-0  13258-3 0  9993,2 52688  53.2161 287.3476 0001540 117.1860 242.9289 15.08830723121186,6917.909,95.438,540.839,538.708,0.0
52688.0,STARLINK-4032,PAYLOAD,2024-07-24 14:35:29,15.08834303,0.000145,53.2146,286.4496,112.2451,247.8695,0.00021161,3.081e-05,0.0,0 STARLINK-4032,1 52688U 22053AJ  24206.60797664  .00003081  00000-0  21161-3 0  9996,2 52688  53.2146 286.4496 0001450 112.2451 247.8695 15.08834303121580,6917.898,95.438,540.766,538.76,0.0
52688.0,STARLINK-4032,PAYLOAD,2024-07-25 04:53:57,15.08841898,0.0001463,53.2161,283.7786,113.5129,246.6017,0.0002687,3.991e-05,0.0,0 STARLINK-4032,1 52688U 22053AJ  24207.20413589  .00003991  00000-0  26870-3 0  9996,2 52688  53.2161 283.7786 0001463 113.5129 246.6017 15.08841898121671,6917.875,95.437,540.752,538.728,0.0
52688.0,STARLINK-4032,PAYLOAD,2024-07-25 14:26:15,15.08855743,0.0001529,53.2135,281.9941,91.645,268.4718,0.00053601,8.257e-05,0.0,0 STARLINK-4032,1 52688U 22053AJ  24207.60157212  .00008257  00000-0  53601-3 0  9990,2 52688  53.2135 281.9941 0001529  91.6450 268.4718 15.08855743121361,6917.832,95.437,540.755,538.64,0.0
52688.0,STARLINK-4032,PAYLOAD,2024-07-26 04:44:44,15.08849573,0.0001704,53.2129,279.3187,89.6123,270.5064,0.00024556,3.623e-05,0.0,0 STARLINK-4032,1 52688U 22053AJ  24208.19773288  .00003623  00000-0  24556-3 0  9991,2 52688  53.2129 279.3187 0001704  89.6123 270.5064 15.08849573121458,6917.851,95.437,540.895,538.537,0.0
52688.0,STARLINK-4032,PAYLOAD,2024-07-26 12:41:39,15.08850152,0.00016,53.2125,277.8304,95.9188,264.1986,0.00021707,3.169e-05,0.0,0 STARLINK-4032,1 52688U 22053AJ  24208.52893045  .00003169  00000-0  21707-3 0  9992,2 52688  53.2125 277.8304 0001600  95.9188 264.1986 15.08850152121877,6917.849,95.437,540.821,538.608,0.0
52688.0,STARLINK-4032,PAYLOAD,2024-07-27 09:21:40,15.08845268,0.000168,53.2135,273.9637,100.5619,259.5563,3.4608e-05,2.63e-06,0.0,0 STARLINK-4032,1 52688U 22053AJ  24209.39004959  .00000263  00000-0  34608-4 0  9993,2 52688  53.2135 273.9637 0001680 100.5619 259.5563 15.08845268121639,6917.864,95.437,540.891,538.567,0.0
52688.0,STARLINK-4032,PAYLOAD,2024-07-27 14:07:49,15.08846309,0.0001598,53.2137,273.072,98.8905,261.2268,1.831e-05,3e-08,0.0,0 STARLINK-4032,1 52688U 22053AJ  24209.58876893  .00000003  00000-0  18310-4 0  9992,2 52688  53.2137 273.0720 0001598  98.8905 261.2268 15.08846309122034,6917.861,95.437,540.832,538.621,0.0
52688.0,STARLINK-4032,PAYLOAD,2024-07-28 04:26:18,15.0883759,0.0001722,53.2137,270.3945,104.6329,255.4854,2.8014e-05,1.58e-06,0.0,0 STARLINK-4032,1 52688U 22053AJ  24210.18493317  .00000158  00000-0  28014-4 0  9999,2 52688  53.2137 270.3945 0001722 104.6329 255.4854 15.08837590121754,6917.888,95.438,540.944,538.561,0.0
52688.0,STARLINK-4032,PAYLOAD,2024-07-28 10:47:50,15.08834762,0.0001317,53.2164,269.2052,95.0299,265.0843,8.471e-05,1.06e-05,0.0,0 STARLINK-4032,1 52688U 22053AJ  24210.44989529  .00001060  00000-0  84710-4 0  9991,2 52688  53.2164 269.2052 0001317  95.0299 265.0843 15.08834762122168,6917.896,95.438,540.672,538.85,0.0
52688.0,STARLINK-4032,PAYLOAD,2024-07-29 12:14:01,15.08840958,0.0001392,53.216,264.4485,85.7291,274.386,5.6431e-05,6.1e-06,0.0,0 STARLINK-4032,1 52688U 22053AJ  24211.50973443  .00000610  00000-0  56431-4 0  9996,2 52688  53.2160 264.4485 0001392  85.7291 274.3860 15.08840958121954,6917.877,95.437,540.705,538.779,0.0
